IRIDIUM 116             
1 43072U 17083C   24225.80924527 -.00000186  00000+0 -73539-4 0  9994
2 43072  86.3931 243.3875 0002027  89.5604 270.5824 14.34215154347656
IRIDIUM 130             
1 43073U 17083D   24225.77753879  .00000057  00000+0  13401-4 0  9998
2 43073  86.3938 243.6110 0002215  87.6877 272.4572 14.34216476347591
IRIDIUM 151             
1 43074U 17083E   24225.96147187  .00000064  00000+0  15822-4 0  9996
2 43074  86.3928 243.3664 0002288  96.3788 263.7668 14.34218093347642
IRIDIUM 134             
1 43075U 17083F   24225.92975854 -.00000265  00000+0 -10172-3 0  9990
2 43075  86.3933 243.3786 0002055  85.7180 274.4250 14.34213892347608
IRIDIUM 137             
1 43076U 17083G   24225.80290269 -.00000022  00000+0 -14961-4 0  9990
2 43076  86.3936 243.5108 0001904 103.7296 256.4112 14.34217834347655
IRIDIUM 141             
1 43077U 17083H   24225.79656299  .00000386  00000+0  13076-3 0  9994
2 43077  86.3928 243.3824 0002460  89.9967 270.1511 14.34219599347654
IRIDIUM 153             
1 43078U 17083J   24225.95804761  .00000346  00000+0  11638-3 0  9990
2 43078  86.3976 211.7965 0002892  89.9756 270.1771 14.34219920348789
IRIDIUM 131             
1 43079U 17083K   24225.78387752  .00000339  00000+0  11404-3 0  9991
2 43079  86.3933 243.5287 0002228  95.3179 264.8271 14.34219352347587
